IRIDIUM 151             
1 43074U 17083E   26117.15711982  .00000090  00000+0  24992-4 0  9996
2 43074  86.3985 343.3991 0002132  84.5673 275.5766 14.34218108436825
IRIDIUM 134             
1 43075U 17083F   26117.12540716  .00000120  00000+0  35764-4 0  9992
2 43075  86.3989 343.4200 0002276  85.8525 274.2931 14.34218074436780
IRIDIUM 137             
1 43076U 17083G   26117.06832273  .00000056  00000+0  13027-4 0  9994
2 43076  86.3993 343.5354 0002087  72.6011 287.5413 14.34218058436842
IRIDIUM 141             
1 43077U 17083H   26117.13174706  .00000219  00000+0  71193-4 0  9992
2 43077  86.3985 343.3426 0002074  87.2800 272.8634 14.34219169436853
IRIDIUM 153             
1 43078U 17083J   26117.29323367  .00000049  00000+0  10429-4 0  9995
2 43078  86.3936 311.7652 0002142  95.0551 265.0889 14.34217850437982
IRIDIUM 131             
1 43079U 17083K   26117.11906432  .00000070  00000+0  17997-4 0  9998
2 43079  86.3992 343.5305 0002074  86.0871 274.0562 14.34217805436787
IRIDIUM 144             
1 43249U 18030A   26117.29957976  .00000074  00000+0  19226-4 0  9999
2 43249  86.3933 311.6929 0002226  86.0487 274.0963 14.34217440422843
IRIDIUM 149             
1 43250U 18030B   26117.23615351  .00000080  00000+0  21565-4 0  9999
2 43250  86.3932 311.6870 0002073  90.3553 269.7880 14.34217597422854
IRIDIUM 157             
1 43251U 18030C   26117.25517902  .00000077  00000+0  20317-4 0  9995
2 43251  86.3934 311.7311 0002169  89.2794 270.8650 14.34217925422839
IRIDIUM 140             
1 43252U 18030D   26117.27420884  .00000083  00000+0  22456-4 0  9993
2 43252  86.3935 311.7358 0002227  89.0028 271.1423 14.34217724422890
IRIDIUM 145             
1 43253U 18030E   26117.26152202  .00000073  00000+0  18975-4 0  9999
2 43253  86.3935 311.7135 0002357  82.4020 277.7443 14.34217910422821
IRIDIUM 146             
1 43254U 18030F   26117.03318836  .00000072  00000+0  18564-4 0  9995
2 43254  86.3934 311.8214 0002222  86.4777 273.6673 14.34217924422807
IRIDIUM 148             
1 43255U 18030G   26117.28056525  .00000072  00000+0  18725-4 0  9996
2 43255  86.3936 311.7603 0002087  86.6823 273.4612 14.34215713422876
IRIDIUM 142             
1 43256U 18030H   26117.03954637  .00000065  00000+0  16172-4 0  9997
2 43256  86.3932 311.7520 0002285  84.3492 275.7964 14.34215205422802
IRIDIUM 150             
1 43257U 18030J   26117.28689102  .00000002  00000+0 -64438-5 0  9998
2 43257  86.3931 311.7630 0002089  88.3170 271.8265 14.34217572422869
IRIDIUM 143             
1 43258U 18030K   26117.05855811  .00000032  00000+0  43942-5 0  9995
2 43258  86.3939 311.9493 0002252  86.3097 273.8356 14.34217810422762
IRIDIUM 161             
1 43478U 18047C   26117.21082423  .00000201  00000+0  53867-4 0  9990
2 43478  86.4446 109.7898 0002029  91.3159 268.8274 14.43281700417787
